IRIDIUM 124             
1 42810U 17039H   26117.09426068  .00000094  00000+0  21898-4 0  9991
2 42810  86.4456 311.7386 0002220  89.1854 270.9602 14.43281294467742
IRIDIUM 128             
1 42811U 17039J   26117.27813353  .00000013  00000+0 -23297-5 0  9997
2 42811  86.3987  46.4246 0002274  80.1473 279.9980 14.34217513462684
IRIDIUM 121             
1 42812U 17039K   26117.23667357  .00000270  00000+0  89465-4 0  9997
2 42812  86.4015  14.9633 0002220  82.2694 277.8754 14.34220121462525
IRIDIUM 133             
1 42955U 17061A   26117.24007795  .00000010  00000+0 -35949-5 0  9997
2 42955  86.3989  46.5569 0002142  84.9248 275.2193 14.34217472447479
IRIDIUM 100             
1 42956U 17061B   26117.23373453  .00000108  00000+0  31543-4 0  9996
2 42956  86.3988  46.4791 0002274  84.6541 275.4915 14.34217568447474
IRIDIUM 122             
1 42957U 17061C   26117.27179074  .00000115  00000+0  34152-4 0  9991
2 42957  86.3988  46.4633 0002279  86.9620 273.1836 14.34218113447483
IRIDIUM 129             
1 42958U 17061D   26117.22739216 -.00000020  00000+0 -14189-4 0  9992
2 42958  86.3988  46.5486 0001846  86.9705 273.1703 14.34217285447497
IRIDIUM 119             
1 42959U 17061E   26117.26544832  .00000003  00000+0 -60164-5 0  9990
2 42959  86.3987  46.5282 0002121  88.4180 271.7259 14.34217454447513
IRIDIUM 107             
1 42960U 17061F   26117.28447668 -.00000103  00000+0 -43941-4 0  9998
2 42960  86.3988  46.5413 0002356  87.0507 273.0958 14.34217285447524
IRIDIUM 132             
1 42961U 17061G   26117.29081873  .00000019  00000+0 -29562-6 0  9992
2 42961  86.3990  46.5182 0002268  85.5132 274.6323 14.34217710447526
IRIDIUM 136             
1 42962U 17061H   26117.18299490 -.00000009  00000+0 -10110-4 0  9994
2 42962  86.3988  46.5700 0002172  87.4622 272.6822 14.34217388447522
IRIDIUM 139             
1 42963U 17061J   26117.25910566  .00000019  00000+0 -35438-6 0  9999
2 42963  86.3990  46.5991 0002342  83.9858 276.1605 14.34217741447542
IRIDIUM 125             
1 42964U 17061K   26117.24642083 -.00000019  00000+0 -13775-4 0  9994
2 42964  86.3990  46.6646 0002290  97.9852 262.1604 14.34217358447551
IRIDIUM 135             
1 43070U 17083A   26117.15077716  .00000070  00000+0  18040-4 0  9997
2 43070  86.3986 343.3587 0002172  86.3387 273.8057 14.34218107436833
IRIDIUM 138             
1 43071U 17083B   26117.17614725  .00000013  00000+0 -24934-5 0  9995
2 43071  86.3991 343.0355 0001874  95.2268 264.9141 14.34217630436829
IRIDIUM 116             
1 43072U 17083C   26117.07467090  .00000266  00000+0  87941-4 0  9991
2 43072  86.3984 343.3770 0002341  81.0033 279.1428 14.34211030436845
IRIDIUM 130             
1 43073U 17083D   26117.18249098 -.00000019  00000+0 -13882-4 0  9991
2 43073  86.3988 343.6019 0002312  85.0346 275.1113 14.34217450436803
