[{"OBJECT_NAME":"IRIDIUM 124","OBJECT_ID":"2017-039H","EPOCH":"2026-04-27T02:15:44.122752","MEAN_MOTION":14.43281294,"ECCENTRICITY":0.000222,"INCLINATION":86.4456,"RA_OF_ASC_NODE":311.7386,"ARG_OF_PERICENTER":89.1854,"MEAN_ANOMALY":270.9602,"EPHEMERIS_TYPE":0,"CLASSIFICATION_TYPE":"U","NORAD_CAT_ID":42810,"ELEMENT_SET_NO":999,"REV_AT_EPOCH":46774,"BSTAR":2.1898414e-5,"MEAN_MOTION_DOT":9.4e-7,"MEAN_MOTION_DDOT":0},{"OBJECT_NAME":"IRIDIUM 128","OBJECT_ID":"2017-039J","EPOCH":"2026-04-27T06:40:30.736992","MEAN_MOTION":14.34217513,"ECCENTRICITY":0.00022742,"INCLINATION":86.3987,"RA_OF_ASC_NODE":46.4246,"ARG_OF_PERICENTER":80.1473,"MEAN_ANOMALY":279.998,"EPHEMERIS_TYPE":0,"CLASSIFICATION_TYPE":"U","NORAD_CAT_ID":42811,"ELEMENT_SET_NO":999,"REV_AT_EPOCH":46268,"BSTAR":-2.329654e-6,"MEAN_MOTION_DOT":1.3e-7,"MEAN_MOTION_DDOT":0},{"OBJECT_NAME":"IRIDIUM 121","OBJECT_ID":"2017-039K","EPOCH":"2026-04-27T05:40:48.596448","MEAN_MOTION":14.34220121,"ECCENTRICITY":0.00022201,"INCLINATION":86.4015,"RA_OF_ASC_NODE":14.9633,"ARG_OF_PERICENTER":82.2694,"MEAN_ANOMALY":277.8754,"EPHEMERIS_TYPE":0,"CLASSIFICATION_TYPE":"U","NORAD_CAT_ID":42812,"ELEMENT_SET_NO":999,"REV_AT_EPOCH":46252,"BSTAR":8.946485e-5,"MEAN_MOTION_DOT":2.7e-6,"MEAN_MOTION_DDOT":0},{"OBJECT_NAME":"IRIDIUM 133","OBJECT_ID":"2017-061A","EPOCH":"2026-04-27T05:45:42.734880","MEAN_MOTION":14.34217472,"ECCENTRICITY":0.00021422,"INCLINATION":86.3989,"RA_OF_ASC_NODE":46.5569,"ARG_OF_PERICENTER":84.9248,"MEAN_ANOMALY":275.2193,"EPHEMERIS_TYPE":0,"CLASSIFICATION_TYPE":"U","NORAD_CAT_ID":42955,"ELEMENT_SET_NO":999,"REV_AT_EPOCH":44747,"BSTAR":-3.594901e-6,"MEAN_MOTION_DOT":1.0e-7,"MEAN_MOTION_DDOT":0},{"OBJECT_NAME":"IRIDIUM 100","OBJECT_ID":"2017-061B","EPOCH":"2026-04-27T05:36:34.663392","MEAN_MOTION":14.34217568,"ECCENTRICITY":0.00022747,"INCLINATION":86.3988,"RA_OF_ASC_NODE":46.4791,"ARG_OF_PERICENTER":84.6541,"MEAN_ANOMALY":275.4915,"EPHEMERIS_TYPE":0,"CLASSIFICATION_TYPE":"U","NORAD_CAT_ID":42956,"ELEMENT_SET_NO":999,"REV_AT_EPOCH":44747,"BSTAR":3.1542686e-5,"MEAN_MOTION_DOT":1.08e-6,"MEAN_MOTION_DDOT":0},{"OBJECT_NAME":"IRIDIUM 122","OBJECT_ID":"2017-061C","EPOCH":"2026-04-27T06:31:22.719936","MEAN_MOTION":14.34218113,"ECCENTRICITY":0.00022796,"INCLINATION":86.3988,"RA_OF_ASC_NODE":46.4633,"ARG_OF_PERICENTER":86.962,"MEAN_ANOMALY":273.1836,"EPHEMERIS_TYPE":0,"CLASSIFICATION_TYPE":"U","NORAD_CAT_ID":42957,"ELEMENT_SET_NO":999,"REV_AT_EPOCH":44748,"BSTAR":3.4152083e-5,"MEAN_MOTION_DOT":1.15e-6,"MEAN_MOTION_DDOT":0},{"OBJECT_NAME":"IRIDIUM 129","OBJECT_ID":"2017-061D","EPOCH":"2026-04-27T05:27:26.682624","MEAN_MOTION":14.34217285,"ECCENTRICITY":0.00018465,"INCLINATION":86.3988,"RA_OF_ASC_NODE":46.5486,"ARG_OF_PERICENTER":86.9705,"MEAN_ANOMALY":273.1703,"EPHEMERIS_TYPE":0,"CLASSIFICATION_TYPE":"U","NORAD_CAT_ID":42958,"ELEMENT_SET_NO":999,"REV_AT_EPOCH":44749,"BSTAR":-1.4189067e-5,"MEAN_MOTION_DOT":-2.0e-7,"MEAN_MOTION_DDOT":0},{"OBJECT_NAME":"IRIDIUM 119","OBJECT_ID":"2017-061E","EPOCH":"2026-04-27T06:22:14.734848","MEAN_MOTION":14.34217454,"ECCENTRICITY":0.00021218,"INCLINATION":86.3987,"RA_OF_ASC_NODE":46.5282,"ARG_OF_PERICENTER":88.418,"MEAN_ANOMALY":271.7259,"EPHEMERIS_TYPE":0,"CLASSIFICATION_TYPE":"U","NORAD_CAT_ID":42959,"ELEMENT_SET_NO":999,"REV_AT_EPOCH":44751,"BSTAR":-6.016413e-6,"MEAN_MOTION_DOT":3.0e-8,"MEAN_MOTION_DDOT":0},{"OBJECT_NAME":"IRIDIUM 107","OBJECT_ID":"2017-061F","EPOCH":"2026-04-27T06:49:38.785152","MEAN_MOTION":14.34217285,"ECCENTRICITY":0.00023562,"INCLINATION":86.3988,"RA_OF_ASC_NODE":46.5413,"ARG_OF_PERICENTER":87.0507,"MEAN_ANOMALY":273.0958,"EPHEMERIS_TYPE":0,"CLASSIFICATION_TYPE":"U","NORAD_CAT_ID":42960,"ELEMENT_SET_NO":999,"REV_AT_EPOCH":44752,"BSTAR":-4.3940531e-5,"MEAN_MOTION_DOT":-1.03e-6,"MEAN_MOTION_DDOT":0},{"OBJECT_NAME":"IRIDIUM 132","OBJECT_ID":"2017-061G","EPOCH":"2026-04-27T06:58:46.738272","MEAN_MOTION":14.3421771,"ECCENTRICITY":0.00022683,"INCLINATION":86.399,"RA_OF_ASC_NODE":46.5182,"ARG_OF_PERICENTER":85.5132,"MEAN_ANOMALY":274.6323,"EPHEMERIS_TYPE":0,"CLASSIFICATION_TYPE":"U","NORAD_CAT_ID":42961,"ELEMENT_SET_NO":999,"REV_AT_EPOCH":44752,"BSTAR":-2.95619e-7,"MEAN_MOTION_DOT":1.9e-7,"MEAN_MOTION_DDOT":0},{"OBJECT_NAME":"IRIDIUM 136","OBJECT_ID":"2017-061H","EPOCH":"2026-04-27T04:23:30.759360","MEAN_MOTION":14.34217388,"ECCENTRICITY":0.00021723,"INCLINATION":86.3988,"RA_OF_ASC_NODE":46.57,"ARG_OF_PERICENTER":87.4622,"MEAN_ANOMALY":272.6822,"EPHEMERIS_TYPE":0,"CLASSIFICATION_TYPE":"U","NORAD_CAT_ID":42962,"ELEMENT_SET_NO":999,"REV_AT_EPOCH":44752,"BSTAR":-1.0109977e-5,"MEAN_MOTION_DOT":-9.0e-8,"MEAN_MOTION_DDOT":0},{"OBJECT_NAME":"IRIDIUM 139","OBJECT_ID":"2017-061J","EPOCH":"2026-04-27T06:13:06.729024","MEAN_MOTION":14.34217741,"ECCENTRICITY":0.00023429,"INCLINATION":86.399,"RA_OF_ASC_NODE":46.5991,"ARG_OF_PERICENTER":83.9858,"MEAN_ANOMALY":276.1605,"EPHEMERIS_TYPE":0,"CLASSIFICATION_TYPE":"U","NORAD_CAT_ID":42963,"ELEMENT_SET_NO":999,"REV_AT_EPOCH":44754,"BSTAR":-3.5438e-7,"MEAN_MOTION_DOT":1.9e-7,"MEAN_MOTION_DDOT":0},{"OBJECT_NAME":"IRIDIUM 125","OBJECT_ID":"2017-061K","EPOCH":"2026-04-27T05:54:50.759712","MEAN_MOTION":14.34217358,"ECCENTRICITY":0.000229,"INCLINATION":86.399,"RA_OF_ASC_NODE":46.6646,"ARG_OF_PERICENTER":97.9852,"MEAN_ANOMALY":262.1604,"EPHEMERIS_TYPE":0,"CLASSIFICATION_TYPE":"U","NORAD_CAT_ID":42964,"ELEMENT_SET_NO":999,"REV_AT_EPOCH":44755,"BSTAR":-1.3775163e-5,"MEAN_MOTION_DOT":-1.9e-7,"MEAN_MOTION_DDOT":0},{"OBJECT_NAME":"IRIDIUM 135","OBJECT_ID":"2017-083A","EPOCH":"2026-04-27T03:37:07.146624","MEAN_MOTION":14.34218107,"ECCENTRICITY":0.00021728,"INCLINATION":86.3986,"RA_OF_ASC_NODE":343.3587,"ARG_OF_PERICENTER":86.3387,"MEAN_ANOMALY":273.8057,"EPHEMERIS_TYPE":0,"CLASSIFICATION_TYPE":"U","NORAD_CAT_ID":43070,"ELEMENT_SET_NO":999,"REV_AT_EPOCH":43683,"BSTAR":1.8039919e-5,"MEAN_MOTION_DOT":7.0e-7,"MEAN_MOTION_DDOT":0},{"OBJECT_NAME":"IRIDIUM 138","OBJECT_ID":"2017-083B","EPOCH":"2026-04-27T04:13:39.122400","MEAN_MOTION":14.3421763,"ECCENTRICITY":0.00018744,"INCLINATION":86.3991,"RA_OF_ASC_NODE":343.0355,"ARG_OF_PERICENTER":95.2268,"MEAN_ANOMALY":264.9141,"EPHEMERIS_TYPE":0,"CLASSIFICATION_TYPE":"U","NORAD_CAT_ID":43071,"ELEMENT_SET_NO":999,"REV_AT_EPOCH":43682,"BSTAR":-2.493442e-6,"MEAN_MOTION_DOT":1.3e-7,"MEAN_MOTION_DDOT":0},{"OBJECT_NAME":"IRIDIUM 116","OBJECT_ID":"2017-083C","EPOCH":"2026-04-27T01:47:31.565760","MEAN_MOTION":14.3421103,"ECCENTRICITY":0.00023416,"INCLINATION":86.3984,"RA_OF_ASC_NODE":343.377,"ARG_OF_PERICENTER":81.0033,"MEAN_ANOMALY":279.1428,"EPHEMERIS_TYPE":0,"CLASSIFICATION_TYPE":"U","NORAD_CAT_ID":43072,"ELEMENT_SET_NO":999,"REV_AT_EPOCH":43684,"BSTAR":8.7940709e-5,"MEAN_MOTION_DOT":2.66e-6,"MEAN_MOTION_DDOT":0},{"OBJECT_NAME":"IRIDIUM 130","OBJECT_ID":"2017-083D","EPOCH":"2026-04-27T04:22:47.220672","MEAN_MOTION":14.3421745,"ECCENTRICITY":0.00023122,"INCLINATION":86.3988,"RA_OF_ASC_NODE":343.6019,"ARG_OF_PERICENTER":85.0346,"MEAN_ANOMALY":275.1113,"EPHEMERIS_TYPE":0,"CLASSIFICATION_TYPE":"U","NORAD_CAT_ID":43073,"ELEMENT_SET_NO":999,"REV_AT_EPOCH":43680,"BSTAR":-1.3881757e-5,"MEAN_MOTION_DOT":-1.9e-7,"MEAN_MOTION_DDOT":0}]
